ALPHASAT                
1 39215U 13038A   17344.78493205  .00000129  00000-0  00000-0 0  9994
2 39215   1.8265  27.5383 0002122 235.0000 124.5386  1.00272914 12861
